<?xml version="1.0" encoding="UTF-8"?>
<ndm xmlns:xsi="http://www.w3.org/2001/XMLSchema-instance" xsi:noNamespaceSchemaLocation="https://sanaregistry.org/r/ndmxml_unqualified/ndmxml-2.0.0-master-2.0.xsd">
<omm id="CCSDS_OMM_VERS" version="2.0">
<header><CREATION_DATE/><ORIGINATOR/></header><body><segment><metadata><OBJECT_NAME>GLOBALSTAR M075</OBJECT_NAME><OBJECT_ID>2010-054E</OBJECT_ID><CENTER_NAME>EARTH</CENTER_NAME><REF_FRAME>TEME</REF_FRAME><TIME_SYSTEM>UTC</TIME_SYSTEM><MEAN_ELEMENT_THEORY>SGP4</MEAN_ELEMENT_THEORY></metadata><data><meanElements><EPOCH>2024-06-26T22:47:17.384928</EPOCH><MEAN_MOTION>12.62261238</MEAN_MOTION><ECCENTRICITY>.000005</ECCENTRICITY><INCLINATION>51.9917</INCLINATION><RA_OF_ASC_NODE>183.1569</RA_OF_ASC_NODE><ARG_OF_PERICENTER>132.7555</ARG_OF_PERICENTER><MEAN_ANOMALY>312.6990</MEAN_ANOMALY></meanElements><tleParameters><EPHEMERIS_TYPE>0</EPHEMERIS_TYPE><CLASSIFICATION_TYPE>U</CLASSIFICATION_TYPE><NORAD_CAT_ID>37192</NORAD_CAT_ID><ELEMENT_SET_NO>999</ELEMENT_SET_NO><REV_AT_EPOCH>63114</REV_AT_EPOCH><BSTAR>-.30469E-4</BSTAR><MEAN_MOTION_DOT>-.109E-5</MEAN_MOTION_DOT><MEAN_MOTION_DDOT>0</MEAN_MOTION_DDOT></tleParameters></data></segment></body></omm>
<omm id="CCSDS_OMM_VERS" version="2.0">
<header><CREATION_DATE/><ORIGINATOR/></header><body><segment><metadata><OBJECT_NAME>GLOBALSTAR M073</OBJECT_NAME><OBJECT_ID>2010-054F</OBJECT_ID><CENTER_NAME>EARTH</CENTER_NAME><REF_FRAME>TEME</REF_FRAME><TIME_SYSTEM>UTC</TIME_SYSTEM><MEAN_ELEMENT_THEORY>SGP4</MEAN_ELEMENT_THEORY></metadata><data><meanElements><EPOCH>2024-06-27T02:43:00.307200</EPOCH><MEAN_MOTION>12.62266302</MEAN_MOTION><ECCENTRICITY>.0000546</ECCENTRICITY><INCLINATION>52.0062</INCLINATION><RA_OF_ASC_NODE>96.2075</RA_OF_ASC_NODE><ARG_OF_PERICENTER>33.4017</ARG_OF_PERICENTER><MEAN_ANOMALY>74.7745</MEAN_ANOMALY></meanElements><tleParameters><EPHEMERIS_TYPE>0</EPHEMERIS_TYPE><CLASSIFICATION_TYPE>U</CLASSIFICATION_TYPE><NORAD_CAT_ID>37193</NORAD_CAT_ID><ELEMENT_SET_NO>999</ELEMENT_SET_NO><REV_AT_EPOCH>63304</REV_AT_EPOCH><BSTAR>.75905E-4</BSTAR><MEAN_MOTION_DOT>-.9E-6</MEAN_MOTION_DOT><MEAN_MOTION_DDOT>0</MEAN_MOTION_DDOT></tleParameters></data></segment></body></omm>
<omm id="CCSDS_OMM_VERS" version="2.0">
<header><CREATION_DATE/><ORIGINATOR/></header><body><segment><metadata><OBJECT_NAME>GLOBALSTAR M083</OBJECT_NAME><OBJECT_ID>2011-033A</OBJECT_ID><CENTER_NAME>EARTH</CENTER_NAME><REF_FRAME>TEME</REF_FRAME><TIME_SYSTEM>UTC</TIME_SYSTEM><MEAN_ELEMENT_THEORY>SGP4</MEAN_ELEMENT_THEORY></metadata><data><meanElements><EPOCH>2024-06-26T23:12:57.706848</EPOCH><MEAN_MOTION>12.62261616</MEAN_MOTION><ECCENTRICITY>.000085</ECCENTRICITY><INCLINATION>51.9881</INCLINATION><RA_OF_ASC_NODE>45.8556</RA_OF_ASC_NODE><ARG_OF_PERICENTER>75.4833</ARG_OF_PERICENTER><MEAN_ANOMALY>31.5527</MEAN_ANOMALY></meanElements><tleParameters><EPHEMERIS_TYPE>0</EPHEMERIS_TYPE><CLASSIFICATION_TYPE>U</CLASSIFICATION_TYPE><NORAD_CAT_ID>37739</NORAD_CAT_ID><ELEMENT_SET_NO>999</ELEMENT_SET_NO><REV_AT_EPOCH>60199</REV_AT_EPOCH><BSTAR>.41107E-4</BSTAR><MEAN_MOTION_DOT>-.96E-6</MEAN_MOTION_DOT><MEAN_MOTION_DDOT>0</MEAN_MOTION_DDOT></tleParameters></data></segment></body></omm>
<omm id="CCSDS_OMM_VERS" version="2.0">
<header><CREATION_DATE/><ORIGINATOR/></header><body><segment><metadata><OBJECT_NAME>GLOBALSTAR M088</OBJECT_NAME><OBJECT_ID>2011-033B</OBJECT_ID><CENTER_NAME>EARTH</CENTER_NAME><REF_FRAME>TEME</REF_FRAME><TIME_SYSTEM>UTC</TIME_SYSTEM><MEAN_ELEMENT_THEORY>SGP4</MEAN_ELEMENT_THEORY></metadata><data><meanElements><EPOCH>2024-06-26T03:55:12.517248</EPOCH><MEAN_MOTION>12.62264519</MEAN_MOTION><ECCENTRICITY>.0000842</ECCENTRICITY><INCLINATION>51.9751</INCLINATION><RA_OF_ASC_NODE>314.1070</RA_OF_ASC_NODE><ARG_OF_PERICENTER>126.1240</ARG_OF_PERICENTER><MEAN_ANOMALY>45.4828</MEAN_ANOMALY></meanElements><tleParameters><EPHEMERIS_TYPE>0</EPHEMERIS_TYPE><CLASSIFICATION_TYPE>U</CLASSIFICATION_TYPE><NORAD_CAT_ID>37740</NORAD_CAT_ID><ELEMENT_SET_NO>999</ELEMENT_SET_NO><REV_AT_EPOCH>59743</REV_AT_EPOCH><BSTAR>.83247E-4</BSTAR><MEAN_MOTION_DOT>-.89E-6</MEAN_MOTION_DOT><MEAN_MOTION_DDOT>0</MEAN_MOTION_DDOT></tleParameters></data></segment></body></omm>
<omm id="CCSDS_OMM_VERS" version="2.0">
<header><CREATION_DATE/><ORIGINATOR/></header><body><segment><metadata><OBJECT_NAME>GLOBALSTAR M091</OBJECT_NAME><OBJECT_ID>2011-033C</OBJECT_ID><CENTER_NAME>EARTH</CENTER_NAME><REF_FRAME>TEME</REF_FRAME><TIME_SYSTEM>UTC</TIME_SYSTEM><MEAN_ELEMENT_THEORY>SGP4</MEAN_ELEMENT_THEORY></metadata><data><meanElements><EPOCH>2024-06-26T11:21:44.144640</EPOCH><MEAN_MOTION>12.62264200</MEAN_MOTION><ECCENTRICITY>.0000873</ECCENTRICITY><INCLINATION>52.0003</INCLINATION><RA_OF_ASC_NODE>276.0840</RA_OF_ASC_NODE><ARG_OF_PERICENTER>145.0416</ARG_OF_PERICENTER><MEAN_ANOMALY>294.9628</MEAN_ANOMALY></meanElements><tleParameters><EPHEMERIS_TYPE>0</EPHEMERIS_TYPE><CLASSIFICATION_TYPE>U</CLASSIFICATION_TYPE><NORAD_CAT_ID>37741</NORAD_CAT_ID><ELEMENT_SET_NO>999</ELEMENT_SET_NO><REV_AT_EPOCH>59826</REV_AT_EPOCH><BSTAR>.14611E-3</BSTAR><MEAN_MOTION_DOT>-.78E-6</MEAN_MOTION_DOT><MEAN_MOTION_DDOT>0</MEAN_MOTION_DDOT></tleParameters></data></segment></body></omm>
<omm id="CCSDS_OMM_VERS" version="2.0">
<header><CREATION_DATE/><ORIGINATOR/></header><body><segment><metadata><OBJECT_NAME>GLOBALSTAR M085</OBJECT_NAME><OBJECT_ID>2011-033D</OBJECT_ID><CENTER_NAME>EARTH</CENTER_NAME><REF_FRAME>TEME</REF_FRAME><TIME_SYSTEM>UTC</TIME_SYSTEM><MEAN_ELEMENT_THEORY>SGP4</MEAN_ELEMENT_THEORY></metadata><data><meanElements><EPOCH>2024-06-26T22:19:04.061568</EPOCH><MEAN_MOTION>12.62263031</MEAN_MOTION><ECCENTRICITY>.0000515</ECCENTRICITY><INCLINATION>51.9852</INCLINATION><RA_OF_ASC_NODE>226.0453</RA_OF_ASC_NODE><ARG_OF_PERICENTER>164.0652</ARG_OF_PERICENTER><MEAN_ANOMALY>252.7563</MEAN_ANOMALY></meanElements><tleParameters><EPHEMERIS_TYPE>0</EPHEMERIS_TYPE><CLASSIFICATION_TYPE>U</CLASSIFICATION_TYPE><NORAD_CAT_ID>37742</NORAD_CAT_ID><ELEMENT_SET_NO>999</ELEMENT_SET_NO><REV_AT_EPOCH>59883</REV_AT_EPOCH><BSTAR>.26671E-4</BSTAR><MEAN_MOTION_DOT>-.99E-6</MEAN_MOTION_DOT><MEAN_MOTION_DDOT>0</MEAN_MOTION_DDOT></tleParameters></data></segment></body></omm>
<omm id="CCSDS_OMM_VERS" version="2.0">
<header><CREATION_DATE/><ORIGINATOR/></header><body><segment><metadata><OBJECT_NAME>GLOBALSTAR M081</OBJECT_NAME><OBJECT_ID>2011-033E</OBJECT_ID><CENTER_NAME>EARTH</CENTER_NAME><REF_FRAME>TEME</REF_FRAME><TIME_SYSTEM>UTC</TIME_SYSTEM><MEAN_ELEMENT_THEORY>SGP4</MEAN_ELEMENT_THEORY></metadata><data><meanElements><EPOCH>2024-06-26T07:52:08.903712</EPOCH><MEAN_MOTION>12.62266366</MEAN_MOTION><ECCENTRICITY>.0000516</ECCENTRICITY><INCLINATION>51.9942</INCLINATION><RA_OF_ASC_NODE>230.4471</RA_OF_ASC_NODE><ARG_OF_PERICENTER>187.2901</ARG_OF_PERICENTER><MEAN_ANOMALY>251.5646</MEAN_ANOMALY></meanElements><tleParameters><EPHEMERIS_TYPE>0</EPHEMERIS_TYPE><CLASSIFICATION_TYPE>U</CLASSIFICATION_TYPE><NORAD_CAT_ID>37743</NORAD_CAT_ID><ELEMENT_SET_NO>999</ELEMENT_SET_NO><REV_AT_EPOCH>59890</REV_AT_EPOCH><BSTAR>.5479E-4</BSTAR><MEAN_MOTION_DOT>-.94E-6</MEAN_MOTION_DOT><MEAN_MOTION_DDOT>0</MEAN_MOTION_DDOT></tleParameters></data></segment></body></omm>
<omm id="CCSDS_OMM_VERS" version="2.0">
<header><CREATION_DATE/><ORIGINATOR/></header><body><segment><metadata><OBJECT_NAME>GLOBALSTAR M089</OBJECT_NAME><OBJECT_ID>2011-033F</OBJECT_ID><CENTER_NAME>EARTH</CENTER_NAME><REF_FRAME>TEME</REF_FRAME><TIME_SYSTEM>UTC</TIME_SYSTEM><MEAN_ELEMENT_THEORY>SGP4</MEAN_ELEMENT_THEORY></metadata><data><meanElements><EPOCH>2024-06-26T05:01:50.394720</EPOCH><MEAN_MOTION>12.62265408</MEAN_MOTION><ECCENTRICITY>.0000319</ECCENTRICITY><INCLINATION>51.9900</INCLINATION><RA_OF_ASC_NODE>185.1027</RA_OF_ASC_NODE><ARG_OF_PERICENTER>324.3226</ARG_OF_PERICENTER><MEAN_ANOMALY>115.4419</MEAN_ANOMALY></meanElements><tleParameters><EPHEMERIS_TYPE>0</EPHEMERIS_TYPE><CLASSIFICATION_TYPE>U</CLASSIFICATION_TYPE><NORAD_CAT_ID>37744</NORAD_CAT_ID><ELEMENT_SET_NO>999</ELEMENT_SET_NO><REV_AT_EPOCH>59973</REV_AT_EPOCH><BSTAR>-.29059E-5</BSTAR><MEAN_MOTION_DOT>-.104E-5</MEAN_MOTION_DOT><MEAN_MOTION_DDOT>0</MEAN_MOTION_DDOT></tleParameters></data></segment></body></omm>

</ndm>
