GLOBALSTAR M075         
1 37192U 10054E   24178.94950677 -.00000109  00000+0 -30469-4 0  9998
2 37192  51.9917 183.1569 0000050 132.7555 312.6990 12.62261238631140
GLOBALSTAR M073         
1 37193U 10054F   24179.11319800 -.00000090  00000+0  75905-4 0  9998
2 37193  52.0062  96.2075 0000546  33.4017  74.7745 12.62266302633042
GLOBALSTAR M083         
1 37739U 11033A   24178.96733457 -.00000096  00000+0  41107-4 0  9995
2 37739  51.9881  45.8556 0000850  75.4833  31.5527 12.62261616601990
GLOBALSTAR M088         
1 37740U 11033B   24178.16333932 -.00000089  00000+0  83247-4 0  9996
2 37740  51.9751 314.1070 0000842 126.1240  45.4828 12.62264519597434
GLOBALSTAR M091         
1 37741U 11033C   24178.47342760 -.00000078  00000+0  14611-3 0  9996
2 37741  52.0003 276.0840 0000873 145.0416 294.9628 12.62264200598265
GLOBALSTAR M085         
1 37742U 11033D   24178.92990812 -.00000099  00000+0  26671-4 0  9997
2 37742  51.9852 226.0453 0000515 164.0652 252.7563 12.62263031598831
GLOBALSTAR M081         
1 37743U 11033E   24178.32788083 -.00000094  00000+0  54790-4 0  9995
2 37743  51.9942 230.4471 0000516 187.2901 251.5646 12.62266366598907
GLOBALSTAR M089         
1 37744U 11033F   24178.20961105 -.00000104  00000+0 -29059-5 0  9995
2 37744  51.9900 185.1027 0000319 324.3226 115.4419 12.62265408599734
